YAM-7                   
1 60504U 24149AN  26068.71799904  .00009009  00000+0  30984-3 0  9997
2 60504  97.3828 149.4631 0001973 296.5121  63.5918 15.30304554 86835
STARLINK-36174          
1 67166U 25303D   26068.07979290  .00039595  00000+0  14398-2 0  9991
2 67166  43.0029 314.0153 0002509 253.7546 106.3030 15.27597520 12640
