[{"OBJECT_NAME":"YAM-7","OBJECT_ID":"2024-149AN","EPOCH":"2026-03-09T17:13:55.117920","MEAN_MOTION":15.30304554,"ECCENTRICITY":0.00019733,"INCLINATION":97.3828,"RA_OF_ASC_NODE":149.4631,"ARG_OF_PERICENTER":296.5121,"MEAN_ANOMALY":63.5918,"EPHEMERIS_TYPE":0,"CLASSIFICATION_TYPE":"U","NORAD_CAT_ID":60504,"ELEMENT_SET_NO":999,"REV_AT_EPOCH":8683,"BSTAR":0.00030984439,"MEAN_MOTION_DOT":9.009e-5,"MEAN_MOTION_DDOT":0},{"OBJECT_NAME":"STARLINK-36174","OBJECT_ID":"2025-303D","EPOCH":"2026-03-09T01:54:54.106560","MEAN_MOTION":15.2759752,"ECCENTRICITY":0.00025097,"INCLINATION":43.0029,"RA_OF_ASC_NODE":314.0153,"ARG_OF_PERICENTER":253.7546,"MEAN_ANOMALY":106.303,"EPHEMERIS_TYPE":0,"CLASSIFICATION_TYPE":"U","NORAD_CAT_ID":67166,"ELEMENT_SET_NO":999,"REV_AT_EPOCH":1264,"BSTAR":0.001439838,"MEAN_MOTION_DOT":0.00039595,"MEAN_MOTION_DDOT":0}]
